start=new Date('2021-11-24T00:00:00.000Z').valueOf();
sats=[{"OBJECT_TYPE":"PAYLOAD","GP_ID":"190360705","RCS_SIZE":"LARGE","DECAY_DATE":null,"INCLINATION":"53.0536","EPOCH":"2021-11-23T15:17:25.491840","PERIOD":"95.593","ELEMENT_SET_NO":"999","COUNTRY_CODE":"US","SITE":"AFETR","TIME_SYSTEM":"UTC","TLE_LINE2":"2 44934  53.0536 161.3944 0001995  88.7353 271.3864 15.06392599103930","MEAN_MOTION_DOT":"0.00001185","MEAN_ELEMENT_THEORY":"SGP4","MEAN_ANOMALY":"271.3864","REF_FRAME":"TEME","ARG_OF_PERICENTER":"88.7353","TLE_LINE1":"1 44934U 20001W   21327.63710060  .00001185  00000-0  98461-4 0  9992","OBJECT_ID":"2020-001W","REV_AT_EPOCH":"10393","EPHEMERIS_TYPE":"0","CENTER_NAME":"EARTH","MEAN_MOTION_DDOT":"0.0000000000000","BSTAR":"0.00009846100000","APOAPSIS":"548.618","LAUNCH_DATE":"2020-01-07","RA_OF_ASC_NODE":"161.3944","OBJECT_NAME":"STARLINK-1071","CLASSIFICATION_TYPE":"U","MEAN_MOTION":"15.06392599","PERIAPSIS":"545.855","SEMIMAJOR_AXIS":"6925.371","FILE":"3222563","NORAD_CAT_ID":"44934","ECCENTRICITY":"0.00019950"},{"LAUNCH_DATE":"2020-01-07","OBJECT_NAME":"STARLINK-1079","RA_OF_ASC_NODE":"161.2020","MEAN_MOTION":"15.06395656","CLASSIFICATION_TYPE":"U","SEMIMAJOR_AXIS":"6925.362","PERIAPSIS":"546.045","ECCENTRICITY":"0.00017060","FILE":"3222563","NORAD_CAT_ID":"44937","MEAN_ANOMALY":"276.7538","REF_FRAME":"TEME","ARG_OF_PERICENTER":"83.3645","OBJECT_ID":"2020-001Z","TLE_LINE1":"1 44937U 20001Z   21327.68132411  .00001230  00000-0  10149-3 0  9995","EPHEMERIS_TYPE":"0","REV_AT_EPOCH":"10394","CENTER_NAME":"EARTH","APOAPSIS":"548.408","BSTAR":"0.00010149000000","MEAN_MOTION_DDOT":"0.0000000000000","EPOCH":"2021-11-23T16:21:06.403104","PERIOD":"95.592","ELEMENT_SET_NO":"999","SITE":"AFETR","COUNTRY_CODE":"US","TIME_SYSTEM":"UTC","TLE_LINE2":"2 44937  53.0532 161.2020 0001706  83.3645 276.7538 15.06395656103943","MEAN_MOTION_DOT":"0.00001230","MEAN_ELEMENT_THEORY":"SGP4","GP_ID":"190360955","OBJECT_TYPE":"PAYLOAD","DECAY_DATE":null,"INCLINATION":"53.0532","RCS_SIZE":"LARGE"},{"MEAN_ANOMALY":"274.8179","REF_FRAME":"TEME","ARG_OF_PERICENTER":"85.3022","OBJECT_ID":"2020-001AA","TLE_LINE1":"1 44938U 20001AA  21327.91353481  .00000955  00000-0  83020-4 0  9996","EPHEMERIS_TYPE":"0","REV_AT_EPOCH":"10397","CENTER_NAME":"EARTH","APOAPSIS":"548.502","BSTAR":"0.00008302000000","MEAN_MOTION_DDOT":"0.0000000000000","LAUNCH_DATE":"2020-01-07","RA_OF_ASC_NODE":"160.1522","OBJECT_NAME":"STARLINK-1082","MEAN_MOTION":"15.06398370","CLASSIFICATION_TYPE":"U","SEMIMAJOR_AXIS":"6925.354","PERIAPSIS":"545.935","ECCENTRICITY":"0.00018530","FILE":"3222563","NORAD_CAT_ID":"44938","GP_ID":"190361707","OBJECT_TYPE":"PAYLOAD","DECAY_DATE":null,"RCS_SIZE":"LARGE","INCLINATION":"53.0535","EPOCH":"2021-11-23T21:55:29.407584","PERIOD":"95.592","ELEMENT_SET_NO":"999","SITE":"AFETR","COUNTRY_CODE":"US","TIME_SYSTEM":"UTC","TLE_LINE2":"2 44938  53.0535 160.1522 0001853  85.3022 274.8179 15.06398370103975","MEAN_MOTION_DOT":"0.00000955","MEAN_ELEMENT_THEORY":"SGP4"},{"EPOCH":"2021-11-23T22:06:04.819104","PERIOD":"95.592","ELEMENT_SET_NO":"999","SITE":"AFETR","COUNTRY_CODE":"US","TIME_SYSTEM":"UTC","MEAN_MOTION_DOT":"0.00000669","TLE_LINE2":"2 44939  53.0527 160.1260 0001831  83.4266 276.6931 15.06403126103973","MEAN_ELEMENT_THEORY":"SGP4","GP_ID":"190362458","OBJECT_TYPE":"PAYLOAD","DECAY_DATE":null,"RCS_SIZE":"LARGE","INCLINATION":"53.0527","LAUNCH_DATE":"2020-01-07","RA_OF_ASC_NODE":"160.1260","OBJECT_NAME":"STARLINK-1083","MEAN_MOTION":"15.06403126","CLASSIFICATION_TYPE":"U","SEMIMAJOR_AXIS":"6925.339","PERIAPSIS":"545.936","ECCENTRICITY":"0.00018310","FILE":"3222563","NORAD_CAT_ID":"44939","MEAN_ANOMALY":"276.6931","REF_FRAME":"TEME","ARG_OF_PERICENTER":"83.4266","OBJECT_ID":"2020-001AB","TLE_LINE1":"1 44939U 20001AB  21327.92088911  .00000669  00000-0  63822-4 0  9991","EPHEMERIS_TYPE":"0","REV_AT_EPOCH":"10397","CENTER_NAME":"EARTH","APOAPSIS":"548.472","BSTAR":"0.00006382200000","MEAN_MOTION_DDOT":"0.0000000000000"},{"REF_FRAME":"TEME","MEAN_ANOMALY":"278.1088","ARG_OF_PERICENTER":"82.0115","EPHEMERIS_TYPE":"0","REV_AT_EPOCH":"10395","OBJECT_ID":"2020-001AC","TLE_LINE1":"1 44940U 20001AC  21327.79927365  .00000516  00000-0  53562-4 0  9994","APOAPSIS":"548.552","MEAN_MOTION_DDOT":"0.0000000000000","BSTAR":"0.00005356200000","CENTER_NAME":"EARTH","LAUNCH_DATE":"2020-01-07","MEAN_MOTION":"15.06390323","CLASSIFICATION_TYPE":"U","OBJECT_NAME":"STARLINK-1091","RA_OF_ASC_NODE":"160.6638","SEMIMAJOR_AXIS":"6925.378","PERIAPSIS":"545.934","ECCENTRICITY":"0.00018900","NORAD_CAT_ID":"44940","FILE":"3222563","GP_ID":"190361206","OBJECT_TYPE":"PAYLOAD","INCLINATION":"53.0534","DECAY_DATE":null,"RCS_SIZE":"LARGE","EPOCH":"2021-11-23T19:10:57.243360","ELEMENT_SET_NO":"999","PERIOD":"95.593","TIME_SYSTEM":"UTC","SITE":"AFETR","COUNTRY_CODE":"US","MEAN_ELEMENT_THEORY":"SGP4","TLE_LINE2":"2 44940  53.0534 160.6638 0001890  82.0115 278.1088 15.06390323103952","MEAN_MOTION_DOT":"0.00000516"},{"DECAY_DATE":null,"RCS_SIZE":"LARGE","INCLINATION":"53.0533","OBJECT_TYPE":"PAYLOAD","GP_ID":"190335165","TIME_SYSTEM":"UTC","COUNTRY_CODE":"US","SITE":"AFETR","MEAN_ELEMENT_THEORY":"SGP4","TLE_LINE2":"2 44941  53.0533 161.7569 0001950  75.2505 284.8700 15.06392460103927","MEAN_MOTION_DOT":"0.00000317","EPOCH":"2021-11-23T13:20:38.121792","ELEMENT_SET_NO":"999","PERIOD":"95.593","EPHEMERIS_TYPE":"0","REV_AT_EPOCH":"10392","TLE_LINE1":"1 44941U 20001AD  21327.55599678  .00000317  00000-0  40165-4 0  9995","OBJECT_ID":"2020-001AD","MEAN_MOTION_DDOT":"0.0000000000000","BSTAR":"0.00004016500000","APOAPSIS":"548.587","CENTER_NAME":"EARTH","REF_FRAME":"TEME","MEAN_ANOMALY":"284.8700","ARG_OF_PERICENTER":"75.2505","PERIAPSIS":"545.886","SEMIMAJOR_AXIS":"6925.372","FILE":"3222418","NORAD_CAT_ID":"44941","ECCENTRICITY":"0.00019500","LAUNCH_DATE":"2020-01-07","CLASSIFICATION_TYPE":"U","MEAN_MOTION":"15.06392460","OBJECT_NAME":"STARLINK-1094","RA_OF_ASC_NODE":"161.7569"},{"MEAN_ELEMENT_THEORY":"SGP4","MEAN_MOTION_DOT":"-0.00001317","TLE_LINE2":"2 44942  53.0523 161.2330 0001841  79.1177 281.0019 15.06388677103944","TIME_SYSTEM":"UTC","SITE":"AFETR","COUNTRY_CODE":"US","ELEMENT_SET_NO":"999","PERIOD":"95.593","EPOCH":"2021-11-23T16:10:28.038432","RCS_SIZE":"LARGE","DECAY_DATE":null,"INCLINATION":"53.0523","GP_ID":"190362208","OBJECT_TYPE":"PAYLOAD","ECCENTRICITY":"0.00018410","FILE":"3222563","NORAD_CAT_ID":"44942","SEMIMAJOR_AXIS":"6925.383","PERIAPSIS":"545.973","MEAN_MOTION":"15.06388677","CLASSIFICATION_TYPE":"U","OBJECT_NAME":"STARLINK-1096","RA_OF_ASC_NODE":"161.2330","LAUNCH_DATE":"2020-01-07","APOAPSIS":"548.523","MEAN_MOTION_DDOT":"0.0000000000000","BSTAR":"-0.00006953100000","CENTER_NAME":"EARTH","EPHEMERIS_TYPE":"0","REV_AT_EPOCH":"10394","OBJECT_ID":"2020-001AE","TLE_LINE1":"1 44942U 20001AE  21327.67393563 -.00001317  00000-0 -69531-4 0  9995","ARG_OF_PERICENTER":"79.1177","REF_FRAME":"TEME","MEAN_ANOMALY":"281.0019"},{"CENTER_NAME":"EARTH","APOAPSIS":"548.450","MEAN_MOTION_DDOT":"0.0000000000000","BSTAR":"0.00007804600000","OBJECT_ID":"2020-001AF","TLE_LINE1":"1 44943U 20001AF  21327.91722392  .00000881  00000-0  78046-4 0  9993","REV_AT_EPOCH":"10397","EPHEMERIS_TYPE":"0","ARG_OF_PERICENTER":"83.9639","MEAN_ANOMALY":"276.1550","REF_FRAME":"TEME","ECCENTRICITY":"0.00017510","NORAD_CAT_ID":"44943","FILE":"3222563","SEMIMAJOR_AXIS":"6925.372","PERIAPSIS":"546.024","RA_OF_ASC_NODE":"160.1416","OBJECT_NAME":"STARLINK-1100","MEAN_MOTION":"15.06392348","CLASSIFICATION_TYPE":"U","LAUNCH_DATE":"2020-01-07","DECAY_DATE":null,"RCS_SIZE":"LARGE","INCLINATION":"53.0532","GP_ID":"190361958","OBJECT_TYPE":"PAYLOAD","TLE_LINE2":"2 44943  53.0532 160.1416 0001751  83.9639 276.1550 15.06392348103972","MEAN_MOTION_DOT":"0.00000881","MEAN_ELEMENT_THEORY":"SGP4","SITE":"AFETR","COUNTRY_CODE":"US","TIME_SYSTEM":"UTC","PERIOD":"95.593","ELEMENT_SET_NO":"999","EPOCH":"2021-11-23T22:00:48.146688"},{"PERIOD":"95.593","ELEMENT_SET_NO":"999","EPOCH":"2021-11-23T15:12:04.908096","TLE_LINE2":"2 44944  53.0534 161.4095 0002010  74.5164 285.6047 15.06391871103932","MEAN_MOTION_DOT":"-0.00000903","MEAN_ELEMENT_THEORY":"SGP4","SITE":"AFETR","COUNTRY_CODE":"US","TIME_SYSTEM":"UTC","GP_ID":"190360706","OBJECT_TYPE":"PAYLOAD","INCLINATION":"53.0534","DECAY_DATE":null,"RCS_SIZE":"LARGE","RA_OF_ASC_NODE":"161.4095","OBJECT_NAME":"STARLINK-1108","MEAN_MOTION":"15.06391871","CLASSIFICATION_TYPE":"U","LAUNCH_DATE":"2020-01-07","ECCENTRICITY":"0.00020100","NORAD_CAT_ID":"44944","FILE":"3222563","SEMIMAJOR_AXIS":"6925.373","PERIAPSIS":"545.846","ARG_OF_PERICENTER":"74.5164","MEAN_ANOMALY":"285.6047","REF_FRAME":"TEME","CENTER_NAME":"EARTH","APOAPSIS":"548.630","BSTAR":"-0.00004170900000","MEAN_MOTION_DDOT":"0.0000000000000","OBJECT_ID":"2020-001AG","TLE_LINE1":"1 44944U 20001AG  21327.63339014 -.00000903  00000-0 -41709-4 0  9991","REV_AT_EPOCH":"10393","EPHEMERIS_TYPE":"0"},{"PERIAPSIS":"545.951","SEMIMAJOR_AXIS":"6925.349","NORAD_CAT_ID":"44945","FILE":"3222563","ECCENTRICITY":"0.00018240","LAUNCH_DATE":"2020-01-07","OBJECT_NAME":"STARLINK-1109","RA_OF_ASC_NODE":"160.6793","CLASSIFICATION_TYPE":"U","MEAN_MOTION":"15.06399825","TLE_LINE1":"1 44945U 20001AH  21327.79557423  .00000998  00000-0  85863-4 0  9996","OBJECT_ID":"2020-001AH","EPHEMERIS_TYPE":"0","REV_AT_EPOCH":"10395","CENTER_NAME":"EARTH","BSTAR":"0.00008586300000","MEAN_MOTION_DDOT":"0.0000000000000","APOAPSIS":"548.477","MEAN_ANOMALY":"276.9299","REF_FRAME":"TEME","ARG_OF_PERICENTER":"83.1898","COUNTRY_CODE":"US","SITE":"AFETR","TIME_SYSTEM":"UTC","MEAN_MOTION_DOT":"0.00000998","TLE_LINE2":"2 44945  53.0531 160.6793 0001824  83.1898 276.9299 15.06399825103959","MEAN_ELEMENT_THEORY":"SGP4","EPOCH":"2021-11-23T19:05:37.613472","PERIOD":"95.592","ELEMENT_SET_NO":"999","DECAY_DATE":null,"RCS_SIZE":"LARGE","INCLINATION":"53.0531","OBJECT_TYPE":"PAYLOAD","GP_ID":"190360956"}];
